{
  "type": "FeatureCollection",
  "features": [
    {
      "type": "Feature",
      "properties": {
        "norad_id": 28890,
        "name": "BEIJING 1",
        "group": "dmc",
        "lat": -6.419817657958881,
        "lon": 124.32799724061313,
        "alt_km": 691.7503148202559,
        "timestamp": "2025-12-21T20:41:07.651952+00:00",
        "meta_object_name": "BEIJING 1",
        "meta_object_id": "2005-043A",
        "meta_epoch": "2025-12-21T14:09:03.543840",
        "meta_mean_motion": 14.63373614,
        "meta_eccentricity": 0.001574,
        "meta_inclination": 98.266,
        "meta_ra_of_asc_node": 123.1179,
        "meta_arg_of_pericenter": 115.1952,
        "meta_mean_anomaly": 245.0884,
        "meta_ephemeris_type": 0,
        "meta_classification_type": "U",
        "meta_norad_cat_id": 28890,
        "meta_element_set_no": 999,
        "meta_rev_at_epoch": 7467,
        "meta_bstar": 6.8298607e-05,
        "meta_mean_motion_dot": 3.05e-06,
        "meta_mean_motion_ddot": 0,
        "tle_line1": "1 28890U 05043A   25355.58962435  .00000305  00000+0  68299-4 0  9996",
        "tle_line2": "2 28890  98.2660 123.1179 0015740 115.1952 245.0884 14.63373614 74678"
      },
      "geometry": {
        "type": "Point",
        "coordinates": [
          124.32799724061313,
          -6.419817657958881
        ]
      }
    },
    {
      "type": "Feature",
      "properties": {
        "norad_id": 33320,
        "name": "HUANJING 1A (HJ-1A)",
        "group": "dmc",
        "lat": -41.97663312301236,
        "lon": -9.27182763464788,
        "alt_km": 616.0252872340297,
        "timestamp": "2025-12-21T20:41:07.651976+00:00",
        "meta_object_name": "HUANJING 1A (HJ-1A)",
        "meta_object_id": "2008-041A",
        "meta_epoch": "2025-12-21T14:24:01.026432",
        "meta_mean_motion": 14.83419753,
        "meta_eccentricity": 0.00194861,
        "meta_inclination": 97.6538,
        "meta_ra_of_asc_node": 343.5284,
        "meta_arg_of_pericenter": 6.4177,
        "meta_mean_anomaly": 353.7283,
        "meta_ephemeris_type": 0,
        "meta_classification_type": "U",
        "meta_norad_cat_id": 33320,
        "meta_element_set_no": 999,
        "meta_rev_at_epoch": 93207,
        "meta_bstar": 0.00016380609,
        "meta_mean_motion_dot": 1.298e-05,
        "meta_mean_motion_ddot": 0,
        "tle_line1": "1 33320U 08041A   25355.60001188  .00001298  00000+0  16381-3 0  9999",
        "tle_line2": "2 33320  97.6538 343.5284 0019486   6.4177 353.7283 14.83419753932070"
      },
      "geometry": {
        "type": "Point",
        "coordinates": [
          -9.27182763464788,
          -41.97663312301236
        ]
      }
    },
    {
      "type": "Feature",
      "properties": {
        "norad_id": 33321,
        "name": "HUANJING 1B (HJ-1B)",
        "group": "dmc",
        "lat": 19.26929247113624,
        "lon": 170.14198769049423,
        "alt_km": 631.1442618119663,
        "timestamp": "2025-12-21T20:41:07.651988+00:00",
        "meta_object_name": "HUANJING 1B (HJ-1B)",
        "meta_object_id": "2008-041B",
        "meta_epoch": "2025-12-21T15:06:32.251680",
        "meta_mean_motion": 14.82843064,
        "meta_eccentricity": 0.00380074,
        "meta_inclination": 97.6397,
        "meta_ra_of_asc_node": 347.2304,
        "meta_arg_of_pericenter": 47.6189,
        "meta_mean_anomaly": 312.8231,
        "meta_ephemeris_type": 0,
        "meta_classification_type": "U",
        "meta_norad_cat_id": 33321,
        "meta_element_set_no": 999,
        "meta_rev_at_epoch": 93209,
        "meta_bstar": 0.00012289125,
        "meta_mean_motion_dot": 9.55e-06,
        "meta_mean_motion_ddot": 0,
        "tle_line1": "1 33321U 08041B   25355.62953995  .00000955  00000+0  12289-3 0  9996",
        "tle_line2": "2 33321  97.6397 347.2304 0038007  47.6189 312.8231 14.82843064932094"
      },
      "geometry": {
        "type": "Point",
        "coordinates": [
          170.14198769049423,
          19.26929247113624
        ]
      }
    },
    {
      "type": "Feature",
      "properties": {
        "norad_id": 33446,
        "name": "YAOGAN-4",
        "group": "dmc",
        "lat": 66.15418457698755,
        "lon": -92.48468354608143,
        "alt_km": 620.9353709418883,
        "timestamp": "2025-12-21T20:41:07.651999+00:00",
        "meta_object_name": "YAOGAN-4",
        "meta_object_id": "2008-061A",
        "meta_epoch": "2025-12-21T09:02:40.964928",
        "meta_mean_motion": 14.8270568,
        "meta_eccentricity": 0.00130663,
        "meta_inclination": 97.9195,
        "meta_ra_of_asc_node": 285.3917,
        "meta_arg_of_pericenter": 292.927,
        "meta_mean_anomaly": 67.0564,
        "meta_ephemeris_type": 0,
        "meta_classification_type": "U",
        "meta_norad_cat_id": 33446,
        "meta_element_set_no": 999,
        "meta_rev_at_epoch": 91931,
        "meta_bstar": 0.00013803316,
        "meta_mean_motion_dot": 1.061e-05,
        "meta_mean_motion_ddot": 0,
        "tle_line1": "1 33446U 08061A   25355.37686302  .00001061  00000+0  13803-3 0  9995",
        "tle_line2": "2 33446  97.9195 285.3917 0013066 292.9270  67.0564 14.82705680919316"
      },
      "geometry": {
        "type": "Point",
        "coordinates": [
          -92.48468354608143,
          66.15418457698755
        ]
      }
    },
    {
      "type": "Feature",
      "properties": {
        "norad_id": 35681,
        "name": "DEIMOS-1",
        "group": "dmc",
        "lat": -55.972348713334604,
        "lon": 167.62148513216994,
        "alt_km": 653.279026842979,
        "timestamp": "2025-12-21T20:41:07.652009+00:00",
        "meta_object_name": "DEIMOS-1",
        "meta_object_id": "2009-041A",
        "meta_epoch": "2025-12-21T14:25:47.187840",
        "meta_mean_motion": 14.74963646,
        "meta_eccentricity": 0.00025714,
        "meta_inclination": 97.7145,
        "meta_ra_of_asc_node": 155.7918,
        "meta_arg_of_pericenter": 65.5267,
        "meta_mean_anomaly": 294.6211,
        "meta_ephemeris_type": 0,
        "meta_classification_type": "U",
        "meta_norad_cat_id": 35681,
        "meta_element_set_no": 999,
        "meta_rev_at_epoch": 88070,
        "meta_bstar": 3.7212553e-05,
        "meta_mean_motion_dot": 2.03e-06,
        "meta_mean_motion_ddot": 0,
        "tle_line1": "1 35681U 09041A   25355.60124060  .00000203  00000+0  37213-4 0  9990",
        "tle_line2": "2 35681  97.7145 155.7918 0002571  65.5267 294.6211 14.74963646880708"
      },
      "geometry": {
        "type": "Point",
        "coordinates": [
          167.62148513216994,
          -55.972348713334604
        ]
      }
    },
    {
      "type": "Feature",
      "properties": {
        "norad_id": 35683,
        "name": "UK-DMC 2",
        "group": "dmc",
        "lat": -19.388507962245058,
        "lon": 133.29272575174764,
        "alt_km": 648.6858120405559,
        "timestamp": "2025-12-21T20:41:07.652019+00:00",
        "meta_object_name": "UK-DMC 2",
        "meta_object_id": "2009-041C",
        "meta_epoch": "2025-12-21T14:15:51.757056",
        "meta_mean_motion": 14.75637867,
        "meta_eccentricity": 0.0001541,
        "meta_inclination": 97.8566,
        "meta_ra_of_asc_node": 130.2474,
        "meta_arg_of_pericenter": 93.3132,
        "meta_mean_anomaly": 266.8254,
        "meta_ephemeris_type": 0,
        "meta_classification_type": "U",
        "meta_norad_cat_id": 35683,
        "meta_element_set_no": 999,
        "meta_rev_at_epoch": 88037,
        "meta_bstar": 8.1529429e-05,
        "meta_mean_motion_dot": 5.07e-06,
        "meta_mean_motion_ddot": 0,
        "tle_line1": "1 35683U 09041C   25355.59434904  .00000507  00000+0  81529-4 0  9997",
        "tle_line2": "2 35683  97.8566 130.2474 0001541  93.3132 266.8254 14.75637867880374"
      },
      "geometry": {
        "type": "Point",
        "coordinates": [
          133.29272575174764,
          -19.388507962245058
        ]
      }
    },
    {
      "type": "Feature",
      "properties": {
        "norad_id": 40715,
        "name": "DMC3-FM1",
        "group": "dmc",
        "lat": -8.705566794270114,
        "lon": -136.09645085648228,
        "alt_km": 615.155120804332,
        "timestamp": "2025-12-21T20:41:07.652029+00:00",
        "meta_object_name": "DMC3-FM1",
        "meta_object_id": "2015-032A",
        "meta_epoch": "2025-12-21T14:15:29.693952",
        "meta_mean_motion": 14.85454271,
        "meta_eccentricity": 0.00041247,
        "meta_inclination": 97.6688,
        "meta_ra_of_asc_node": 222.4634,
        "meta_arg_of_pericenter": 284.6216,
        "meta_mean_anomaly": 75.4542,
        "meta_ephemeris_type": 0,
        "meta_classification_type": "U",
        "meta_norad_cat_id": 40715,
        "meta_element_set_no": 999,
        "meta_rev_at_epoch": 56354,
        "meta_bstar": 0.00010001402,
        "meta_mean_motion_dot": 8.11e-06,
        "meta_mean_motion_ddot": 0,
        "tle_line1": "1 40715U 15032A   25355.59409368  .00000811  00000+0  10001-3 0  9996",
        "tle_line2": "2 40715  97.6688 222.4634 0004124 284.6216  75.4542 14.85454271563547"
      },
      "geometry": {
        "type": "Point",
        "coordinates": [
          -136.09645085648228,
          -8.705566794270114
        ]
      }
    },
    {
      "type": "Feature",
      "properties": {
        "norad_id": 40716,
        "name": "DMC3-FM2",
        "group": "dmc",
        "lat": -50.536975412321,
        "lon": 34.74448618930421,
        "alt_km": 617.4463817285487,
        "timestamp": "2025-12-21T20:41:07.652039+00:00",
        "meta_object_name": "DMC3-FM2",
        "meta_object_id": "2015-032B",
        "meta_epoch": "2025-12-21T14:47:52.232064",
        "meta_mean_motion": 14.85457257,
        "meta_eccentricity": 0.00046691,
        "meta_inclination": 97.6747,
        "meta_ra_of_asc_node": 223.9354,
        "meta_arg_of_pericenter": 291.7109,
        "meta_mean_anomaly": 68.3609,
        "meta_ephemeris_type": 0,
        "meta_classification_type": "U",
        "meta_norad_cat_id": 40716,
        "meta_element_set_no": 999,
        "meta_rev_at_epoch": 56354,
        "meta_bstar": 9.3439075e-05,
        "meta_mean_motion_dot": 7.54e-06,
        "meta_mean_motion_ddot": 0,
        "tle_line1": "1 40716U 15032B   25355.61657676  .00000754  00000+0  93439-4 0  9990",
        "tle_line2": "2 40716  97.6747 223.9354 0004669 291.7109  68.3609 14.85457257563545"
      },
      "geometry": {
        "type": "Point",
        "coordinates": [
          34.74448618930421,
          -50.536975412321
        ]
      }
    },
    {
      "type": "Feature",
      "properties": {
        "norad_id": 40717,
        "name": "DMC3-FM3",
        "group": "dmc",
        "lat": 63.73362225118936,
        "lon": 61.68017246657598,
        "alt_km": 608.8628361713418,
        "timestamp": "2025-12-21T20:41:07.652048+00:00",
        "meta_object_name": "DMC3-FM3",
        "meta_object_id": "2015-032C",
        "meta_epoch": "2025-12-21T15:19:07.206240",
        "meta_mean_motion": 14.85439842,
        "meta_eccentricity": 0.00040956,
        "meta_inclination": 97.6801,
        "meta_ra_of_asc_node": 225.5954,
        "meta_arg_of_pericenter": 293.1252,
        "meta_mean_anomaly": 66.9532,
        "meta_ephemeris_type": 0,
        "meta_classification_type": "U",
        "meta_norad_cat_id": 40717,
        "meta_element_set_no": 999,
        "meta_rev_at_epoch": 56355,
        "meta_bstar": -1.7918021e-05,
        "meta_mean_motion_dot": -2.06e-06,
        "meta_mean_motion_ddot": 0,
        "tle_line1": "1 40717U 15032C   25355.63827785 -.00000206  00000+0 -17918-4 0  9995",
        "tle_line2": "2 40717  97.6801 225.5954 0004095 293.1252  66.9532 14.85439842563559"
      },
      "geometry": {
        "type": "Point",
        "coordinates": [
          61.68017246657598,
          63.73362225118936
        ]
      }
    }
  ]
}